start=new Date('2021-11-01T00:00:00.000Z').valueOf();
sats=[{"PERIAPSIS":"545.769","DECAY_DATE":null,"BSTAR":"0.00008410100000","RCS_SIZE":"LARGE","INCLINATION":"53.0528","SEMIMAJOR_AXIS":"6925.336","PERIOD":"95.592","OBJECT_ID":"2021-040AD","ELEMENT_SET_NO":"999","CENTER_NAME":"EARTH","TIME_SYSTEM":"UTC","OBJECT_NAME":"STARLINK-2497","MEAN_MOTION":"15.06404256","FILE":"3194950","TLE_LINE1":"1 48455U 21040AD  21304.76258992  .00000971  00000-0  84101-4 0  9996","REF_FRAME":"TEME","LAUNCH_DATE":"2021-05-09","ECCENTRICITY":"0.00020670","RA_OF_ASC_NODE":"119.0737","ARG_OF_PERICENTER":"78.0366","TLE_LINE2":"2 48455  53.0528 119.0737 0002067  78.0366 282.0855 15.06404256 26982","GP_ID":"188608203","MEAN_MOTION_DDOT":"0.0000000000000","EPOCH":"2021-10-31T18:18:07.769088","NORAD_CAT_ID":"48455","MEAN_ANOMALY":"282.0855","MEAN_MOTION_DOT":"0.00000971","MEAN_ELEMENT_THEORY":"SGP4","SITE":"AFETR","OBJECT_TYPE":"PAYLOAD","REV_AT_EPOCH":"2698","COUNTRY_CODE":"US","EPHEMERIS_TYPE":"0","APOAPSIS":"548.632","CLASSIFICATION_TYPE":"U"},{"TLE_LINE2":"2 48456  53.0529 118.7950 0001974  85.1920 274.9294 15.06402493 26997","ARG_OF_PERICENTER":"85.1920","ECCENTRICITY":"0.00019740","RA_OF_ASC_NODE":"118.7950","MEAN_MOTION_DOT":"0.00004775","MEAN_ANOMALY":"274.9294","EPOCH":"2021-10-31T19:48:22.449312","MEAN_MOTION_DDOT":"0.0000000000000","GP_ID":"188608434","NORAD_CAT_ID":"48456","REV_AT_EPOCH":"2699","SITE":"AFETR","MEAN_ELEMENT_THEORY":"SGP4","OBJECT_TYPE":"PAYLOAD","CLASSIFICATION_TYPE":"U","COUNTRY_CODE":"US","EPHEMERIS_TYPE":"0","APOAPSIS":"548.573","BSTAR":"0.00033925000000","DECAY_DATE":null,"PERIAPSIS":"545.839","OBJECT_ID":"2021-040AE","PERIOD":"95.592","INCLINATION":"53.0529","RCS_SIZE":"LARGE","SEMIMAJOR_AXIS":"6925.341","MEAN_MOTION":"15.06402493","FILE":"3194950","CENTER_NAME":"EARTH","ELEMENT_SET_NO":"999","OBJECT_NAME":"STARLINK-2508","TIME_SYSTEM":"UTC","LAUNCH_DATE":"2021-05-09","TLE_LINE1":"1 48456U 21040AE  21304.82525983  .00004775  00000-0  33925-3 0  9994","REF_FRAME":"TEME"},{"CLASSIFICATION_TYPE":"U","COUNTRY_CODE":"US","EPHEMERIS_TYPE":"0","APOAPSIS":"548.458","REV_AT_EPOCH":"2763","MEAN_ELEMENT_THEORY":"SGP4","SITE":"AFETR","OBJECT_TYPE":"PAYLOAD","MEAN_ANOMALY":"267.9980","MEAN_MOTION_DOT":"-0.00000772","GP_ID":"188608319","EPOCH":"2021-10-31T18:18:46.684512","MEAN_MOTION_DDOT":"0.0000000000000","NORAD_CAT_ID":"48458","ARG_OF_PERICENTER":"92.1209","TLE_LINE2":"2 48458  53.0557 124.0634 0001745  92.1209 267.9980 15.06388409 27639","ECCENTRICITY":"0.00017450","RA_OF_ASC_NODE":"124.0634","LAUNCH_DATE":"2021-05-09","TLE_LINE1":"1 48458U 21040AG  21304.76304033 -.00000772  00000-0 -32959-4 0  9992","REF_FRAME":"TEME","MEAN_MOTION":"15.06388409","FILE":"3194950","CENTER_NAME":"EARTH","ELEMENT_SET_NO":"999","TIME_SYSTEM":"UTC","OBJECT_NAME":"STARLINK-2698","PERIOD":"95.593","OBJECT_ID":"2021-040AG","RCS_SIZE":"LARGE","INCLINATION":"53.0557","SEMIMAJOR_AXIS":"6925.384","BSTAR":"-0.00003295900000","PERIAPSIS":"546.041","DECAY_DATE":null},{"BSTAR":"0.00004088000000","DECAY_DATE":null,"PERIAPSIS":"545.978","OBJECT_ID":"2021-040AH","PERIOD":"95.592","SEMIMAJOR_AXIS":"6925.344","INCLINATION":"53.0551","RCS_SIZE":"LARGE","FILE":"3194950","MEAN_MOTION":"15.06401511","OBJECT_NAME":"STARLINK-2579","TIME_SYSTEM":"UTC","ELEMENT_SET_NO":"999","CENTER_NAME":"EARTH","LAUNCH_DATE":"2021-05-09","REF_FRAME":"TEME","TLE_LINE1":"1 48459U 21040AH  21304.79620125  .00000327  00000-0  40880-4 0  9995","TLE_LINE2":"2 48459  53.0551 123.9211 0001778  81.6787 278.4404 15.06401511 26933","ARG_OF_PERICENTER":"81.6787","RA_OF_ASC_NODE":"123.9211","ECCENTRICITY":"0.00017780","MEAN_MOTION_DOT":"0.00000327","MEAN_ANOMALY":"278.4404","NORAD_CAT_ID":"48459","MEAN_MOTION_DDOT":"0.0000000000000","EPOCH":"2021-10-31T19:06:31.788000","GP_ID":"188608543","REV_AT_EPOCH":"2693","OBJECT_TYPE":"PAYLOAD","MEAN_ELEMENT_THEORY":"SGP4","SITE":"AFETR","CLASSIFICATION_TYPE":"U","APOAPSIS":"548.440","COUNTRY_CODE":"US","EPHEMERIS_TYPE":"0"},{"BSTAR":"0.00005733800000","DECAY_DATE":null,"PERIAPSIS":"546.041","OBJECT_ID":"2021-040AJ","PERIOD":"95.592","INCLINATION":"53.0549","RCS_SIZE":"LARGE","SEMIMAJOR_AXIS":"6925.357","MEAN_MOTION":"15.06397233","FILE":"3194950","CENTER_NAME":"EARTH","ELEMENT_SET_NO":"999","OBJECT_NAME":"STARLINK-2582","TIME_SYSTEM":"UTC","LAUNCH_DATE":"2021-05-09","TLE_LINE1":"1 48460U 21040AJ  21304.78240184  .00000573  00000-0  57338-4 0  9998","REF_FRAME":"TEME","TLE_LINE2":"2 48460  53.0549 123.9810 0001705  90.6210 269.4974 15.06397233 27431","ARG_OF_PERICENTER":"90.6210","ECCENTRICITY":"0.00017050","RA_OF_ASC_NODE":"123.9810","MEAN_MOTION_DOT":"0.00000573","MEAN_ANOMALY":"269.4974","MEAN_MOTION_DDOT":"0.0000000000000","EPOCH":"2021-10-31T18:46:39.518976","GP_ID":"188607850","NORAD_CAT_ID":"48460","REV_AT_EPOCH":"2743","MEAN_ELEMENT_THEORY":"SGP4","SITE":"AFETR","OBJECT_TYPE":"PAYLOAD","CLASSIFICATION_TYPE":"U","EPHEMERIS_TYPE":"0","COUNTRY_CODE":"US","APOAPSIS":"548.403"},{"INCLINATION":"53.0545","RCS_SIZE":"LARGE","SEMIMAJOR_AXIS":"6925.359","OBJECT_ID":"2021-040AK","PERIOD":"95.592","DECAY_DATE":null,"PERIAPSIS":"545.834","BSTAR":"0.00004195900000","TLE_LINE1":"1 48461U 21040AK  21304.86349662  .00000343  00000-0  41959-4 0  9996","REF_FRAME":"TEME","LAUNCH_DATE":"2021-05-09","ELEMENT_SET_NO":"999","CENTER_NAME":"EARTH","OBJECT_NAME":"STARLINK-2693","TIME_SYSTEM":"UTC","MEAN_MOTION":"15.06396626","FILE":"3194950","EPOCH":"2021-10-31T20:43:26.107968","MEAN_MOTION_DDOT":"0.0000000000000","GP_ID":"188608081","NORAD_CAT_ID":"48461","MEAN_MOTION_DOT":"0.00000343","MEAN_ANOMALY":"271.2739","ECCENTRICITY":"0.00020070","RA_OF_ASC_NODE":"123.6136","TLE_LINE2":"2 48461  53.0545 123.6136 0002007  88.8480 271.2739 15.06396626 26940","ARG_OF_PERICENTER":"88.8480","COUNTRY_CODE":"US","EPHEMERIS_TYPE":"0","APOAPSIS":"548.614","CLASSIFICATION_TYPE":"U","SITE":"AFETR","MEAN_ELEMENT_THEORY":"SGP4","OBJECT_TYPE":"PAYLOAD","REV_AT_EPOCH":"2694"},{"PERIAPSIS":"546.040","DECAY_DATE":null,"BSTAR":"-0.00001782000000","SEMIMAJOR_AXIS":"6925.361","RCS_SIZE":"LARGE","INCLINATION":"53.0511","PERIOD":"95.592","OBJECT_ID":"2021-040AL","TIME_SYSTEM":"UTC","OBJECT_NAME":"STARLINK-2683","ELEMENT_SET_NO":"999","CENTER_NAME":"EARTH","FILE":"3194950","MEAN_MOTION":"15.06396002","REF_FRAME":"TEME","TLE_LINE1":"1 48462U 21040AL  21304.88605030 -.00000547  00000-0 -17820-4 0  9991","LAUNCH_DATE":"2021-05-09","RA_OF_ASC_NODE":"128.5293","ECCENTRICITY":"0.00017120","ARG_OF_PERICENTER":"70.3904","TLE_LINE2":"2 48462  53.0511 128.5293 0001712  70.3904 289.7270 15.06396002 26875","NORAD_CAT_ID":"48462","GP_ID":"188607966","MEAN_MOTION_DDOT":"0.0000000000000","EPOCH":"2021-10-31T21:15:54.745920","MEAN_ANOMALY":"289.7270","MEAN_MOTION_DOT":"-0.00000547","OBJECT_TYPE":"PAYLOAD","MEAN_ELEMENT_THEORY":"SGP4","SITE":"AFETR","REV_AT_EPOCH":"2687","APOAPSIS":"548.411","COUNTRY_CODE":"US","EPHEMERIS_TYPE":"0","CLASSIFICATION_TYPE":"U"},{"SEMIMAJOR_AXIS":"6925.355","RCS_SIZE":"LARGE","INCLINATION":"53.0551","PERIOD":"95.592","OBJECT_ID":"2021-040AM","PERIAPSIS":"546.028","DECAY_DATE":null,"BSTAR":"0.00002150400000","REF_FRAME":"TEME","TLE_LINE1":"1 48463U 21040AM  21304.78653020  .00000039  00000-0  21504-4 0  9991","LAUNCH_DATE":"2021-05-09","TIME_SYSTEM":"UTC","OBJECT_NAME":"STARLINK-2689","CENTER_NAME":"EARTH","ELEMENT_SET_NO":"999","FILE":"3194950","MEAN_MOTION":"15.06397874","NORAD_CAT_ID":"48463","GP_ID":"188608653","EPOCH":"2021-10-31T18:52:36.209280","MEAN_MOTION_DDOT":"0.0000000000000","MEAN_ANOMALY":"280.7187","MEAN_MOTION_DOT":"0.00000039","RA_OF_ASC_NODE":"128.9687","ECCENTRICITY":"0.00017210","ARG_OF_PERICENTER":"79.3995","TLE_LINE2":"2 48463  53.0551 128.9687 0001721  79.3995 280.7187 15.06397874 26865","APOAPSIS":"548.412","COUNTRY_CODE":"US","EPHEMERIS_TYPE":"0","CLASSIFICATION_TYPE":"U","OBJECT_TYPE":"PAYLOAD","SITE":"AFETR","MEAN_ELEMENT_THEORY":"SGP4","REV_AT_EPOCH":"2686"},{"TLE_LINE2":"2 48464  53.0552 129.6582 0001899  74.4129 285.7069 15.06397062 26830","ARG_OF_PERICENTER":"74.4129","ECCENTRICITY":"0.00018990","RA_OF_ASC_NODE":"129.6582","MEAN_MOTION_DOT":"0.00000070","MEAN_ANOMALY":"285.7069","MEAN_MOTION_DDOT":"0.0000000000000","EPOCH":"2021-10-31T15:11:02.734656","GP_ID":"188608204","NORAD_CAT_ID":"48464","REV_AT_EPOCH":"2683","MEAN_ELEMENT_THEORY":"SGP4","SITE":"AFETR","OBJECT_TYPE":"PAYLOAD","CLASSIFICATION_TYPE":"U","COUNTRY_CODE":"US","EPHEMERIS_TYPE":"0","APOAPSIS":"548.538","BSTAR":"0.00002361200000","DECAY_DATE":null,"PERIAPSIS":"545.907","OBJECT_ID":"2021-040AN","PERIOD":"95.592","INCLINATION":"53.0552","RCS_SIZE":"LARGE","SEMIMAJOR_AXIS":"6925.358","MEAN_MOTION":"15.06397062","FILE":"3194950","CENTER_NAME":"EARTH","ELEMENT_SET_NO":"999","OBJECT_NAME":"STARLINK-2686","TIME_SYSTEM":"UTC","LAUNCH_DATE":"2021-05-09","TLE_LINE1":"1 48464U 21040AN  21304.63267054  .00000070  00000-0  23612-4 0  9991","REF_FRAME":"TEME"},{"BSTAR":"0.00000915560000","PERIAPSIS":"546.050","DECAY_DATE":null,"PERIOD":"95.592","OBJECT_ID":"2021-040AP","RCS_SIZE":"LARGE","INCLINATION":"53.0559","SEMIMAJOR_AXIS":"6925.351","MEAN_MOTION":"15.06399309","FILE":"3194950","ELEMENT_SET_NO":"999","CENTER_NAME":"EARTH","TIME_SYSTEM":"UTC","OBJECT_NAME":"STARLINK-2681","LAUNCH_DATE":"2021-05-09","TLE_LINE1":"1 48465U 21040AP  21304.77641426 -.00000145  00000-0  91556-5 0  9993","REF_FRAME":"TEME","ARG_OF_PERICENTER":"79.5302","TLE_LINE2":"2 48465  53.0559 129.0004 0001683  79.5302 280.5876 15.06399309 26869","ECCENTRICITY":"0.00016830","RA_OF_ASC_NODE":"129.0004","MEAN_ANOMALY":"280.5876","MEAN_MOTION_DOT":"-0.00000145","GP_ID":"188608435","EPOCH":"2021-10-31T18:38:02.192064","MEAN_MOTION_DDOT":"0.0000000000000","NORAD_CAT_ID":"48465","REV_AT_EPOCH":"2686","MEAN_ELEMENT_THEORY":"SGP4","SITE":"AFETR","OBJECT_TYPE":"PAYLOAD","CLASSIFICATION_TYPE":"U","COUNTRY_CODE":"US","EPHEMERIS_TYPE":"0","APOAPSIS":"548.381"}];
